[{"OBJECT_NAME":"UM5-EOSAT","OBJECT_ID":"2024-149CR","EPOCH":"2026-03-09T17:21:09.122400","MEAN_MOTION":15.00894746,"ECCENTRICITY":0.00087192,"INCLINATION":97.6855,"RA_OF_ASC_NODE":148.6787,"ARG_OF_PERICENTER":107.8964,"MEAN_ANOMALY":252.3212,"EPHEMERIS_TYPE":0,"CLASSIFICATION_TYPE":"U","NORAD_CAT_ID":60555,"ELEMENT_SET_NO":999,"REV_AT_EPOCH":8529,"BSTAR":0.00036077282,"MEAN_MOTION_DOT":4.537e-5,"MEAN_MOTION_DDOT":0},{"OBJECT_NAME":"STARLINK-34085","OBJECT_ID":"2025-102Q","EPOCH":"2026-03-09T12:22:57.883008","MEAN_MOTION":14.98271093,"ECCENTRICITY":0.00030814,"INCLINATION":70.0007,"RA_OF_ASC_NODE":114.9898,"ARG_OF_PERICENTER":264.0355,"MEAN_ANOMALY":96.0453,"EPHEMERIS_TYPE":0,"CLASSIFICATION_TYPE":"U","NORAD_CAT_ID":64036,"ELEMENT_SET_NO":999,"REV_AT_EPOCH":4592,"BSTAR":0.0056196571,"MEAN_MOTION_DOT":0.00067507,"MEAN_MOTION_DDOT":0}]
